{
    "links": {
        "self": "http://www.neowsapp.com/rest/v1/neo/3545481?api_key=iIulBulltgU6a56xZRHN4H3l9WmuAYTsLGpBGhQ2"
    },
    "id": "3545481",
    "neo_reference_id": "3545481",
    "name": "(2010 RW3)",
    "designation": "2010 RW3",
    "nasa_jpl_url": "http://ssd.jpl.nasa.gov/sbdb.cgi?sstr=3545481",
    "absolute_magnitude_h": 23.9,
    "estimated_diameter": {
        "kilometers": {
            "estimated_diameter_min": 0.04411182,
            "estimated_diameter_max": 0.0986370281
        },
        "meters": {
            "estimated_diameter_min": 44.1118199997,
            "estimated_diameter_max": 98.6370281305
        },
        "miles": {
            "estimated_diameter_min": 0.0274098057,
            "estimated_diameter_max": 0.0612901888
        },
        "feet": {
            "estimated_diameter_min": 144.7238235278,
            "estimated_diameter_max": 323.6123073718
        }
    },
    "is_potentially_hazardous_asteroid": false,
    "close_approach_data": [
        {
            "close_approach_date": "2010-09-14",
            "close_approach_date_full": "2010-Sep-14 10:43",
            "epoch_date_close_approach": 1284460980000,
            "relative_velocity": {
                "kilometers_per_second": "2.3014787418",
                "kilometers_per_hour": "8285.3234704639",
                "miles_per_hour": "5148.1777975224"
            },
            "miss_distance": {
                "astronomical": "0.2643619961",
                "lunar": "102.8368164829",
                "kilometers": "39547991.525508307",
                "miles": "24573982.4232443566"
            },
            "orbiting_body": "Earth"
        }
    ],
    "orbital_data": {
        "orbit_id": "15",
        "orbit_determination_date": "2017-04-06 08:56:54",
        "first_observation_date": "2010-09-02",
        "last_observation_date": "2010-10-11",
        "data_arc_in_days": 39,
        "observations_used": 43,
        "orbit_uncertainty": "7",
        "minimum_orbit_intersection": ".265787",
        "jupiter_tisserand_invariant": "3.731",
        "epoch_osculation": "2459000.5",
        "eccentricity": ".3708740255165024",
        "semi_major_axis": "2.019723434947607",
        "inclination": "3.564837040205341",
        "ascending_node_longitude": "175.8650743834773",
        "orbital_period": "1048.422382071725",
        "perihelion_distance": "1.27066047419857",
        "perihelion_argument": "178.1504209735822",
        "aphelion_distance": "2.768786395696643",
        "perihelion_time": "2458602.243350839545",
        "mean_anomaly": "136.7506037160844",
        "mean_motion": ".3433730585650274",
        "equinox": "J2000",
        "orbit_class": {
            "orbit_class_type": "AMO",
            "orbit_class_description": "Near-Earth asteroid orbits similar to that of 1221 Amor",
            "orbit_class_range": "1.017 AU < q (perihelion) < 1.3 AU"
        }
    },
    "is_sentry_object": false
}